{
  "norad_id": 60083,
  "name": "KINEIS-1E",
  "history": [
    {
      "epoch": "2026-03-27T14:18:52.956864Z",
      "apogee_km": 629.3593075673207,
      "perigee_km": 625.89145518854,
      "latitude_deg": -2.281704083916774e-05,
      "longitude_deg": 71.29437525787736,
      "height_km": 630.9093828092342,
      "semi_major_axis_km": 7005.76238137793,
      "eccentricity": 0.0002475,
      "inclination_deg": 97.9711,
      "raan_deg": 111.044,
      "arg_perigee_deg": 98.8882,
      "mean_anomaly_deg": 261.261,
      "mean_motion_rev_day": 14.80538337
    },
    {
      "epoch": "2026-03-31T15:38:05.970336Z",
      "apogee_km": 629.3473019939593,
      "perigee_km": 625.7645906212174,
      "latitude_deg": 9.720726740574655e-05,
      "longitude_deg": 51.520435461224714,
      "height_km": 630.8687723349849,
      "semi_major_axis_km": 7005.692946307588,
      "eccentricity": 0.0002557,
      "inclination_deg": 97.9647,
      "raan_deg": 115.0711,
      "arg_perigee_deg": 99.5324,
      "mean_anomaly_deg": 260.6178,
      "mean_motion_rev_day": 14.80560348
    },
    {
      "epoch": "2026-04-01T19:12:31.842720Z",
      "apogee_km": 629.3367575160337,
      "perigee_km": 625.744246093107,
      "latitude_deg": 2.7477336038345273e-05,
      "longitude_deg": -2.0795728801545255,
      "height_km": 630.8922585036936,
      "semi_major_axis_km": 7005.67750180457,
      "eccentricity": 0.0002564,
      "inclination_deg": 97.962,
      "raan_deg": 116.2113,
      "arg_perigee_deg": 100.764,
      "mean_anomaly_deg": 259.3861,
      "mean_motion_rev_day": 14.80565244
    },
    {
      "epoch": "2026-04-02T09:48:24.271200Z",
      "apogee_km": 629.3339501924556,
      "perigee_km": 625.737097805184,
      "latitude_deg": 6.924452451985899e-05,
      "longitude_deg": 138.95585552258464,
      "height_km": 630.844888310074,
      "semi_major_axis_km": 7005.67252399882,
      "eccentricity": 0.00025671,
      "inclination_deg": 97.9619,
      "raan_deg": 116.8147,
      "arg_perigee_deg": 99.3803,
      "mean_anomaly_deg": 260.77,
      "mean_motion_rev_day": 14.80566822
    },
    {
      "epoch": "2026-04-03T18:14:47.461920Z",
      "apogee_km": 629.3384936418788,
      "perigee_km": 625.7347751243515,
      "latitude_deg": -3.952864746166571e-06,
      "longitude_deg": 12.368283832509347,
      "height_km": 630.8398453759278,
      "semi_major_axis_km": 7005.673634383114,
      "eccentricity": 0.0002572,
      "inclination_deg": 97.961,
      "raan_deg": 118.156,
      "arg_perigee_deg": 99.1632,
      "mean_anomaly_deg": 260.9871,
      "mean_motion_rev_day": 14.8056647
    },
    {
      "epoch": "2026-04-04T20:11:54.131136Z",
      "apogee_km": 629.3030292944431,
      "perigee_km": 625.7777724263306,
      "latitude_deg": 1.1387278732736471e-05,
      "longitude_deg": -16.90211223155906,
      "height_km": 630.7878519647791,
      "semi_major_axis_km": 7005.677400860387,
      "eccentricity": 0.0002516,
      "inclination_deg": 97.959,
      "raan_deg": 119.2292,
      "arg_perigee_deg": 97.5323,
      "mean_anomaly_deg": 262.6175,
      "mean_motion_rev_day": 14.80565276
    },
    {
      "epoch": "2026-04-05T12:25:05.748960Z",
      "apogee_km": 629.3004229720318,
      "perigee_km": 625.7855332134241,
      "latitude_deg": 9.11447116419174e-05,
      "longitude_deg": 99.80414063154568,
      "height_km": 630.7879384560848,
      "semi_major_axis_km": 7005.679978092728,
      "eccentricity": 0.00025086,
      "inclination_deg": 97.9583,
      "raan_deg": 119.9,
      "arg_perigee_deg": 97.4721,
      "mean_anomaly_deg": 262.6777,
      "mean_motion_rev_day": 14.80564459
    },
    {
      "epoch": "2026-04-05T20:31:41.578176Z",
      "apogee_km": 629.3124135302542,
      "perigee_km": 625.7815488037468,
      "latitude_deg": -6.187135806214717e-05,
      "longitude_deg": -21.84309101507626,
      "height_km": 630.7813313113536,
      "semi_major_axis_km": 7005.683981167001,
      "eccentricity": 0.000252,
      "inclination_deg": 97.9582,
      "raan_deg": 120.2351,
      "arg_perigee_deg": 97.091,
      "mean_anomaly_deg": 263.0588,
      "mean_motion_rev_day": 14.8056319
    }
  ]
}